[
  {
    "name": "ONEWEB-0116",
    "noradId": "48046",
    "line1": "1 48046U 21025E   26192.80816289  .00000037  00000+0  66987-4 0  9993",
    "line2": "2 48046  87.8986 315.3192 0001826 100.5270 259.6065 13.13468996256888"
  },
  {
    "name": "ONEWEB-0150",
    "noradId": "48047",
    "line1": "1 48047U 21025F   26192.86064580  .00000292  00000+0  76555-3 0  9993",
    "line2": "2 48047  87.8982 315.3064 0001831  96.5237 263.6101 13.13470299256780"
  },
  {
    "name": "ONEWEB-0107",
    "noradId": "48048",
    "line1": "1 48048U 21025G   26192.86234561  .00000259  00000+0  67446-3 0  9994",
    "line2": "2 48048  87.8983 315.3019 0002149  98.5511 261.5862 13.13472212256768"
  },
  {
    "name": "ONEWEB-0101",
    "noradId": "48049",
    "line1": "1 48049U 21025H   26192.82509054 -.00000258  00000+0 -74200-3 0  9990",
    "line2": "2 48049  87.8975 315.3221 0002090 101.5123 258.6241 13.13470773256739"
  },
  {
    "name": "ONEWEB-0113",
    "noradId": "48050",
    "line1": "1 48050U 21025J   26192.84152517 -.00000202  00000+0 -58421-3 0  9998",
    "line2": "2 48050  87.8978 315.2269 0001887  95.3377 264.7968 13.13891630256844"
  },
  {
    "name": "ONEWEB-0112",
    "noradId": "48051",
    "line1": "1 48051U 21025K   26192.86741670  .00000234  00000+0  60512-3 0  9992",
    "line2": "2 48051  87.8986 315.2987 0002177 102.5202 257.6171 13.13468852256834"
  },
  {
    "name": "ONEWEB-0156",
    "noradId": "48052",
    "line1": "1 48052U 21025L   26192.79969940  .00000284  00000+0  74217-3 0  9999",
    "line2": "2 48052  87.8987 315.3218 0002032  97.1783 262.9577 13.13471655256808"
  },
  {
    "name": "ONEWEB-0161",
    "noradId": "48053",
    "line1": "1 48053U 21025M   26192.85047933  .00000070  00000+0  15593-3 0  9991",
    "line2": "2 48053  87.8985 315.3128 0002015  96.0175 264.1183 13.13470397256743"
  },
  {
    "name": "ONEWEB-0158",
    "noradId": "48054",
    "line1": "1 48054U 21025N   26192.80986807  .00000076  00000+0  17332-3 0  9998",
    "line2": "2 48054  87.8985 315.3196 0001865 103.4877 256.6460 13.13464534256866"
  },
  {
    "name": "ONEWEB-0157",
    "noradId": "48055",
    "line1": "1 48055U 21025P   26192.83524368 -.00000222  00000+0 -64167-3 0  9995",
    "line2": "2 48055  87.8979 315.3182 0002211  97.6047 262.5333 13.13472044256808"
  },
  {
    "name": "ONEWEB-0162",
    "noradId": "48056",
    "line1": "1 48056U 21025Q   26192.81141711 -.00000039  00000+0 -14290-3 0  9999",
    "line2": "2 48056  87.8989 315.3231 0002049 107.2978 252.8375 13.13468817256772"
  },
  {
    "name": "ONEWEB-0155",
    "noradId": "48057",
    "line1": "1 48057U 21025R   26192.81833646 -.00000219  00000+0 -63360-3 0  9997",
    "line2": "2 48057  87.8979 315.3193 0002044  95.7428 264.3934 13.13472847256918"
  },
  {
    "name": "ONEWEB-0149",
    "noradId": "48058",
    "line1": "1 48058U 21025S   26192.84032852 -.00000204  00000+0 -59222-3 0  9997",
    "line2": "2 48058  87.8982 315.3185 0001912  92.9829 267.1519 13.13470216256728"
  },
  {
    "name": "ONEWEB-0148",
    "noradId": "48059",
    "line1": "1 48059U 21025T   26192.80308617  .00000228  00000+0  58980-3 0  9993",
    "line2": "2 48059  87.8979 315.3315 0001991  93.0193 267.1164 13.13469185256845"
  },
  {
    "name": "ONEWEB-0160",
    "noradId": "48060",
    "line1": "1 48060U 21025U   26192.82000558 -.00000233  00000+0 -67383-3 0  9995",
    "line2": "2 48060  87.8982 315.3235 0001381 117.2437 242.8832 13.13468819256794"
  },
  {
    "name": "ONEWEB-0163",
    "noradId": "48061",
    "line1": "1 48061U 21025V   26192.80477844  .00000215  00000+0  55429-3 0  9996",
    "line2": "2 48061  87.8986 315.3230 0002197  99.3666 260.7712 13.13468553256919"
  }
]